$$SOE
2459580.500000000, A.D. 2022-Jan-01 00:00:00.0000, -3.857181187251370E+08, 1.635472723143449E+08, -3.437216415743109E+07,
2459587.500000000, A.D. 2022-Jan-08 00:00:00.0000, -3.862186107079827E+08, 1.555672667283887E+08, -3.375559872236539E+07,
2459594.500000000, A.D. 2022-Jan-15 00:00:00.0000, -3.864619361313608E+08, 1.474836765687031E+08, -3.311655219949524E+07,
2459601.500000000, A.D. 2022-Jan-22 00:00:00.0000, -3.864427440469275E+08, 1.392999070229158E+08, -3.245500638772998E+07,
2459608.500000000, A.D. 2022-Jan-29 00:00:00.0000, -3.861554434140275E+08, 1.310195026011671E+08, -3.177094087872906E+07,
2459615.500000000, A.D. 2022-Feb-05 00:00:00.0000, -3.855941903486602E+08, 1.226461643522446E+08, -3.106433353413622E+07,
2459622.500000000, A.D. 2022-Feb-12 00:00:00.0000, -3.847528721642306E+08, 1.141837678519085E+08, -3.033516134030900E+07,
2459629.500000000, A.D. 2022-Feb-19 00:00:00.0000, -3.836250894394644E+08, 1.056363845872089E+08, -2.958340134003939E+07,
2459636.500000000, A.D. 2022-Feb-26 00:00:00.0000, -3.822041373343995E+08, 9.700830630444658E+07, -2.880903159825789E+07,
2459643.500000000, A.D. 2022-Mar-05 00:00:00.0000, -3.804829859032818E+08, 8.830407204009546E+07, -2.801203228897353E+07,
2459650.500000000, A.D. 2022-Mar-12 00:00:00.0000, -3.784542590888101E+08, 7.952849815833960E+07, -2.719238695582924E+07,
2459657.500000000, A.D. 2022-Mar-19 00:00:00.0000, -3.761102122326424E+08, 7.068671187596436E+07, -2.635008398254753E+07,
2459664.500000000, A.D. 2022-Mar-26 00:00:00.0000, -3.734427079862462E+08, 6.178418879614448E+07, -2.548511831389673E+07,
2459671.500000000, A.D. 2022-Apr-02 00:00:00.0000, -3.704431904636902E+08, 5.282679500988047E+07, -2.459749348303325E+07,
2459678.500000000, A.D. 2022-Apr-09 00:00:00.0000, -3.671026572817011E+08, 4.382083448728411E+07, -2.368722402344381E+07,
2459685.500000000, A.D. 2022-Apr-16 00:00:00.0000, -3.634116290617446E+08, 3.477310325298555E+07, -2.275433830911219E+07,
2459692.500000000, A.D. 2022-Apr-23 00:00:00.0000, -3.593601176179294E+08, 2.569095241658562E+07, -2.179888169536205E+07,
2459699.500000000, A.D. 2022-Apr-30 00:00:00.0000, -3.549375946929173E+08, 1.658235897459104E+07, -2.082092006629576E+07,
2459706.500000000, A.D. 2022-May-07 00:00:00.0000, -3.501329582240038E+08, 7.456003784436282E+06, -1.982054434490653E+07,
2459713.500000000, A.D. 2022-May-14 00:00:00.0000, -3.449344948615161E+08, -1.678638623584487E+06, -1.879787598169008E+07,
2459720.500000000, A.D. 2022-May-21 00:00:00.0000, -3.393298409806076E+08, -1.081119571352077E+07, -1.775307333935393E+07,
2459727.500000000, A.D. 2022-May-28 00:00:00.0000, -3.333059430260593E+08, -1.993027676637715E+07, -1.668633921249641E+07,
2459734.500000000, A.D. 2022-Jun-04 00:00:00.0000, -3.268490174807864E+08, -2.902333445065916E+07, -1.559792978457781E+07,
2459741.500000000, A.D. 2022-Jun-11 00:00:00.0000, -3.199445111605654E+08, -3.807650489295383E+07, -1.448816534370028E+07,
2459748.500000000, A.D. 2022-Jun-18 00:00:00.0000, -3.125770630300066E+08, -4.707442236145655E+07, -1.335744313976946E+07,
2459755.500000000, A.D. 2022-Jun-25 00:00:00.0000, -3.047304692796078E+08, -5.600000396905077E+07, -1.220625285880921E+07,
2459762.500000000, A.D. 2022-Jul-02 00:00:00.0000, -2.963876540376013E+08, -6.483419893538176E+07, -1.103519531567352E+07,
2459769.500000000, A.D. 2022-Jul-09 00:00:00.0000, -2.875306488505947E+08, -7.355569563624106E+07, -9.845005112027768E+06,
2459776.500000000, A.D. 2022-Jul-16 00:00:00.0000, -2.781405859113197E+08, -8.214057750661130E+07, -8.636578069623854E+06,
2459783.500000000, A.D. 2022-Jul-23 00:00:00.0000, -2.681977140826682E+08, -9.056191841549653E+07, -7.411004357854158E+06,
2459790.500000000, A.D. 2022-Jul-30 00:00:00.0000, -2.576814471484343E+08, -9.878930991985671E+07, -6.169609004174873E+06,
2459797.500000000, A.D. 2022-Aug-06 00:00:00.0000, -2.465704538810655E+08, -1.067883070078163E+08, -4.914001817834400E+06,
2459804.500000000, A.D. 2022-Aug-13 00:00:00.0000, -2.348428089882138E+08, -1.145197749944749E+08, -3.646138603206702E+06,
2459811.500000000, A.D. 2022-Aug-20 00:00:00.0000, -2.224762316823276E+08, -1.219391218464037E+08, -2.368396249109402E+06,
2459818.500000000, A.D. 2022-Aug-27 00:00:00.0000, -2.094484464989178E+08, -1.289953994333526E+08, -1.083665054721035E+06,
2459825.500000000, A.D. 2022-Sep-03 00:00:00.0000, -1.957377137998051E+08, -1.356302570139298E+08, 2.045376997022852E+05,
2459832.500000000, A.D. 2022-Sep-10 00:00:00.0000, -1.813235950748878E+08, -1.417767333417503E+08, 1.491928253807381E+06,
2459839.500000000, A.D. 2022-Sep-17 00:00:00.0000, -1.661880414508023E+08, -1.473578821540677E+08, 2.773285660210215E+06,
2459846.500000000, A.D. 2022-Sep-24 00:00:00.0000, -1.503169238084182E+08, -1.522852431917043E+08, 4.042244334385827E+06,
2459853.500000000, A.D. 2022-Oct-01 00:00:00.0000, -1.337021598454959E+08, -1.564572033270593E+08, 5.291044893980369E+06,
2459860.500000000, A.D. 2022-Oct-08 00:00:00.0000, -1.163446355915064E+08, -1.597573488011340E+08, 6.510240623554140E+06,
2459867.500000000, A.D. 2022-Oct-15 00:00:00.0000, -9.825816101344597E+07, -1.620530038938525E+08, 7.688362507636771E+06,
2459874.500000000, A.D. 2022-Oct-22 00:00:00.0000, -7.947472319272149E+07, -1.631943047468058E+08, 8.811556559606366E+06,
2459881.500000000, A.D. 2022-Oct-29 00:00:00.0000, -6.005126566962783E+07, -1.630143819185371E+08, 9.863226397968203E+06,
2459888.500000000, A.D. 2022-Nov-05 00:00:00.0000, -4.007807672012125E+07, -1.613315240325122E+08, 1.082374705943903E+07,
2459895.500000000, A.D. 2022-Nov-12 00:00:00.0000, -1.968851122492254E+07, -1.579545486451481E+08, 1.167036459181375E+07,
2459902.500000000, A.D. 2022-Nov-19 00:00:00.0000, 9.309334962663286E+05, -1.526928873683386E+08, 1.237745674179253E+07,
2459909.500000000, A.D. 2022-Nov-26 00:00:00.0000, 2.153229451825932E+07, -1.453728174856843E+08, 1.291738584414727E+07,
2459916.500000000, A.D. 2022-Dec-03 00:00:00.0000, 4.180309574664000E+07, -1.358603810201128E+08, 1.326218103477695E+07,
2459923.500000000, A.D. 2022-Dec-10 00:00:00.0000, 6.137319112528543E+07, -1.240893387222985E+08, 1.338617011704254E+07,
2459930.500000000, A.D. 2022-Dec-17 00:00:00.0000, 7.983564716748017E+07, -1.100890363763217E+08, 1.326937590747673E+07,
2459937.500000000, A.D. 2022-Dec-24 00:00:00.0000, 9.678244899747793E+07, -9.400363693234003E+07, 1.290103052224214E+07,
2459944.500000000, A.D. 2022-Dec-31 00:00:00.0000, 1.118496205992114E+08, -7.609353864393719E+07, 1.228216900938942E+07,
2459951.500000000, A.D. 2023-Jan-07 00:00:00.0000, 1.247602453018365E+08, -5.671432575920778E+07, 1.142629356233558E+07,
2459958.500000000, A.D. 2023-Jan-14 00:00:00.0000, 1.353524857280964E+08, -3.627721124706418E+07, 1.035771942862457E+07,
2459965.500000000, A.D. 2023-Jan-21 00:00:00.0000, 1.435851622450591E+08, -1.520249889038415E+07, 9.108124091934996E+06,
2459972.500000000, A.D. 2023-Jan-28 00:00:00.0000, 1.495225030541368E+08, 6.120929687356481E+06, 7.712437581724413E+06,
2459979.500000000, A.D. 2023-Feb-04 00:00:00.0000, 1.533064423964513E+08, 2.736190066104455E+07, 6.205196803148217E+06,
2459986.500000000, A.D. 2023-Feb-11 00:00:00.0000, 1.551261769668942E+08, 4.825768930322298E+07, 4.618004797495291E+06,
2459993.500000000, A.D. 2023-Feb-18 00:00:00.0000, 1.551918513924201E+08, 6.861272815270607E+07, 2.978189722895335E+06,
2460000.500000000, A.D. 2023-Feb-25 00:00:00.0000, 1.537153012515410E+08, 8.829031375587955E+07, 1.308417859323952E+06,
2460007.500000000, A.D. 2023-Mar-04 00:00:00.0000, 1.508978522368642E+08, 1.072015897616660E+08, -3.730857425279468E+05,
2460014.500000000, A.D. 2023-Mar-11 00:00:00.0000, 1.469237588659050E+08, 1.252945506232074E+08, -2.052008898745604E+06,
2460021.500000000, A.D. 2023-Mar-18 00:00:00.0000, 1.419575601233280E+08, 1.425444310571964E+08, -3.717321125184320E+06,
2460028.500000000, A.D. 2023-Mar-25 00:00:00.0000, 1.361438710220850E+08, 1.589459280049254E+08, -5.360656984323017E+06,
2460035.500000000, A.D. 2023-Apr-01 00:00:00.0000, 1.296085294324023E+08, 1.745072074882596E+08, -6.975769325932503E+06,
2460042.500000000, A.D. 2023-Apr-08 00:00:00.0000, 1.224603866916248E+08, 1.892454395127137E+08, -8.558070397696994E+06,
2460049.500000000, A.D. 2023-Apr-15 00:00:00.0000, 1.147933087519408E+08, 2.031835501138275E+08, -1.010425930134446E+07,
2460056.500000000, A.D. 2023-Apr-22 00:00:00.0000, 1.066881486846258E+08, 2.163479000031407E+08, -1.161202619908080E+07,
2460063.500000000, A.D. 2023-Apr-29 00:00:00.0000, 9.821457193693617E+07, 2.287666531839363E+08, -1.307982071659954E+07,
2460070.500000000, A.D. 2023-May-06 00:00:00.0000, 8.943268217463426E+07, 2.404686503953849E+08, -1.450667191009521E+07,
2460077.500000000, A.D. 2023-May-13 00:00:00.0000, 8.039443605888498E+07, 2.514826454340206E+08, -1.589204897381520E+07,
2460084.500000000, A.D. 2023-May-20 00:00:00.0000, 7.114485714851098E+07, 2.618367997668166E+08, -1.723575379813030E+07,
2460091.500000000, A.D. 2023-May-27 00:00:00.0000, 6.172306850598997E+07, 2.715583596861867E+08, -1.853783822126964E+07,
2460098.500000000, A.D. 2023-Jun-03 00:00:00.0000, 5.216316660923160E+07, 2.806734614747920E+08, -1.979854033620280E+07,
2460105.500000000, A.D. 2023-Jun-10 00:00:00.0000, 4.249495898309882E+07, 2.892070255093605E+08, -2.101823547423056E+07,
2460112.500000000, A.D. 2023-Jun-17 00:00:00.0000, 3.274458627543395E+07, 2.971827114131721E+08, -2.219739849919744E+07,
2460119.500000000, A.D. 2023-Jun-24 00:00:00.0000, 2.293504733946830E+07, 3.046229145574925E+08, -2.333657484115207E+07,
2460126.500000000, A.D. 2023-Jul-01 00:00:00.0000, 1.308664330137627E+07, 3.115487907702732E+08, -2.443635823463415E+07,
2460133.500000000, A.D. 2023-Jul-08 00:00:00.0000, 3.217352289276858E+06, 3.179803002338174E+08, -2.549737341550493E+07,
2460140.500000000, A.D. 2023-Jul-15 00:00:00.0000, -6.656855237372260E+06, 3.239362608286629E+08, -2.652026271621771E+07,
2460147.500000000, A.D. 2023-Jul-22 00:00:00.0000, -1.652174768773914E+07, 3.294344050834861E+08, -2.750567606323141E+07,
$$EOE